KUIPER-00157            
1 65970U 25228Z   25299.91147021  .00021242  00000+0  64003-3 0  9994
2 65970  51.8813 246.1940 0005847 197.1098 162.9691 15.34261519  3228
